TEST SAT
1 51658U 22013C   23151.54930522  .00014242  00000-0  62333-3 0  9998
2 51658  97.5468 163.6964 0011404  73.4808 286.7680 15.22097651 71453
